COSMOS 2251 DEB         
1 34747U 93036ZR  17345.01552977  .00002150  00000-0  22880-3 0  9993
2 34747  73.9880 236.8711 0051051  54.5864 306.0068 14.88696660470620
